MEAN_MOTION;ECCENTRICITY;INCLINATION;RA_OF_ASC_NODE;ARG_OF_PERICENTER;MEAN_ANOMALY;BSTAR;MEAN_MOTION_DOT;MEAN_MOTION_DDOT;TYPE
12.07384218;0.0009317;51.9977;269.3938;152.2257;346.1103;-0.00061184;-1.42E-6;0;Globalstar
12.07384213;0.0009328;51.9976;267.6531;153.516;222.5291;-0.00065045;-1.46E-6;0;Globalstar
12.0738428;0.0009347;51.9975;266.6978;154.2615;295.3234;-0.00059552;-1.41E-6;0;Globalstar
12.07384264;0.0009313;51.9975;264.215;155.9706;267.0514;-0.00059129;-1.4E-6;0;Globalstar
12.07384262;0.0009316;51.9975;263.6953;156.3477;10.0994;-0.00059036;-1.4E-6;0;Globalstar
12.07384281;0.0009323;51.9975;262.1995;157.4989;218.8078;-0.00054662;-1.37E-6;0;Globalstar
12.07384355;0.0009323;51.9972;261.209;158.0132;347.2395;-0.00091287;-1.69E-6;0;Globalstar
12.07384372;0.0009326;51.9972;260.9738;158.1975;359.7329;-0.00088434;-1.66E-6;0;Globalstar
12.07384341;0.0009314;51.9971;259.4629;159.2762;232.3195;-0.00084779;-1.63E-6;0;Globalstar
12.07384177;0.0009306;51.997;256.7355;161.2484;231.1789;-0.00090768;-1.68E-6;0;Globalstar
12.07384249;0.0009281;51.997;255.519;162.0611;357.7732;-0.00073122;-1.53E-6;0;Globalstar
12.07384149;0.0009288;51.997;253.2825;163.7613;299.394;-0.00068988;-1.49E-6;0;Globalstar
12.07384123;0.0009288;51.997;252.7916;164.143;356.6868;-0.00069856;-1.5E-6;0;Globalstar
12.0738402;0.0009273;51.997;250.5574;165.7484;294.634;-0.00057787;-1.39E-6;0;Globalstar
12.0738418;0.000927;51.9975;247.3624;168.2168;314.4215;-0.00017942;-1.04E-6;0;Globalstar
12.07384121;0.0009269;51.9976;244.8803;170.0796;284.9003;-0.00012622;-9.9E-7;0;Globalstar
12.07384025;0.0009269;51.9976;241.9002;172.4307;324.0739;-0.00018299;-1.04E-6;0;Globalstar
12.07384022;0.0009268;51.9976;241.6579;172.619;347.7391;-0.00017557;-1.04E-6;0;Globalstar
12.07383987;0.0009267;51.9976;239.4503;174.2686;243.7469;-8.1052E-5;-9.5E-7;0;Globalstar
12.07383975;0.0009263;51.9976;238.7305;174.814;303.5661;-5.8524E-5;-9.3E-7;0;Globalstar
12.07383942;0.000925;51.9977;237.1647;175.9106;263.2902;-1.0101E-5;-8.9E-7;0;Globalstar
12.07383951;0.0009249;51.9977;236.9234;176.083;285.3162;1.5374E-5;-8.7E-7;0;Globalstar
12.0738395;0.000924;51.9978;235.1563;177.3498;203.6344;0.00010585;-7.9E-7;0;Globalstar
12.07383967;0.0009239;51.9978;234.4363;177.8953;263.7975;0.00014062;-7.6E-7;0;Globalstar
12.07383967;0.0009237;51.9978;234.1966;178.054;283.5435;0.00015324;-7.5E-7;0;Globalstar
12.07384012;0.0009231;51.9979;231.9411;179.7807;255.1838;0.00025657;-6.5E-7;0;Globalstar
12.07384052;0.0009229;51.9979;231.7096;179.9359;261.8303;0.00030579;-6.1E-7;0;Globalstar
12.07384109;0.0009215;51.998;228.5169;182.3516;277.8098;0.00036401;-5.6E-7;0;Globalstar
12.07384105;0.0009214;51.998;228.2648;182.5437;317.1159;0.00036039;-5.6E-7;0;Globalstar
12.07384124;0.0009204;51.9981;225.5385;184.5749;314.5484;0.00033179;-5.9E-7;0;Globalstar
12.07384124;0.0009204;51.9981;225.5385;184.5749;314.5484;0.00033179;-5.9E-7;0;Globalstar
12.07384151;0.0009199;51.9982;223.2874;186.2848;279.3957;0.00028248;-6.3E-7;0;Globalstar
12.07384193;0.0009197;51.9983;221.0331;188.0429;249.2328;0.00021648;-6.9E-7;0;Globalstar
12.07384193;0.0009197;51.9983;221.0331;188.0429;249.2328;0.00021648;-6.9E-7;0;Globalstar
12.07384268;0.0009186;51.9984;218.3058;190.1274;248.2273;0.00015036;-7.5E-7;0;Globalstar
12.07384312;0.0009184;51.9984;215.579;192.1991;246.4775;4.7578E-5;-8.4E-7;0;Globalstar
12.07384335;0.0009174;51.9984;215.1059;192.4927;275.8214;3.7778E-5;-8.5E-7;0;Globalstar
12.0738466;0.0009168;51.9983;212.8519;194.1017;245.4617;-0.00020058;-1.06E-6;0;Globalstar
12.07384717;0.0009166;51.9983;210.1259;196.1932;242.4474;-0.00025061;-1.1E-6;0;Globalstar
12.07384751;0.0009162;51.9983;209.9101;196.3253;224.3072;-0.00021356;-1.07E-6;0;Globalstar
12.07384765;0.0009156;51.9982;209.1733;196.9267;311.089;-0.00021387;-1.07E-6;0;Globalstar
12.07384775;0.0009146;51.9983;206.4473;199.0803;308.0609;-0.0002814;-1.13E-6;0;Globalstar
12.07384696;0.0009141;51.9983;204.4557;200.5985;222.0949;-0.00040637;-1.24E-6;0;Globalstar
12.07384633;0.0009133;51.9984;202.6757;201.9892;161.0142;-0.000491;-1.32E-6;0;Globalstar
12.0738451;0.0009134;51.9983;201.7285;202.6936;221.0663;-0.00062616;-1.44E-6;0;Globalstar
12.07384368;0.0009119;51.9983;199.2192;204.6392;234.9803;-0.0007645;-1.56E-6;0;Globalstar
12.07384327;0.0009123;51.9983;198.7818;205.0167;207.6246;-0.00078;-1.57E-6;0;Globalstar
12.07384236;0.0009117;51.9982;196.2731;206.9319;220.6115;-0.00080684;-1.6E-6;0;Globalstar
12.07384188;0.0009114;51.9982;193.5229;209.1476;256.0062;-0.00070518;-1.51E-6;0;Globalstar
12.07384253;0.0009106;51.998;190.1033;211.8166;271.4747;-0.00034652;-1.19E-6;0;Globalstar
12.07384216;0.0009108;51.9979;187.3593;213.9981;297.0331;-0.00011991;-9.9E-7;0;Globalstar
12.0738423;0.0009103;51.9978;185.3452;215.5422;246.5992;0.00012255;-7.7E-7;0;Globalstar
12.07384336;0.0009099;51.9981;182.1221;217.903;310.3961;9.9386E-5;-7.9E-7;0;Globalstar
12.07384239;0.0009083;51.998;179.4162;220.0806;275.6232;5.3207E-5;-8.3E-7;0;Globalstar
12.07384301;0.0009083;51.998;177.1896;221.8319;201.8195;0.00022813;-6.8E-7;0;Globalstar
12.07384365;0.0009077;51.9979;175.1397;223.4255;208.0188;0.00038202;-5.4E-7;0;Globalstar
12.07384239;0.0009061;51.9975;173.9624;224.3703;272.5708;0.0011618;1.5E-7;0;Globalstar
12.07384429;0.000905;51.9975;171.4558;226.3686;282.0785;0.0013442;3.1E-7;0;Globalstar
12.0738447;0.000905;51.9974;170.9952;226.7412;291.2775;0.0013577;3.2E-7;0;Globalstar
12.07384686;0.0009046;51.9974;168.0642;229.0206;252.8986;0.0013412;3.1E-7;0;Globalstar
12.07384806;0.0009044;51.9973;166.2581;230.4026;233.0521;0.0012654;2.4E-7;0;Globalstar
12.07384918;0.0009039;51.9972;164.4955;231.7759;144.3572;0.0011292;1.2E-7;0;Globalstar
12.07384964;0.0009035;51.9972;163.5304;232.5209;232.6974;0.0010309;3.0E-8;0;Globalstar
12.07385101;0.0009029;51.9971;160.804;234.6418;230.2882;0.00074532;-2.2E-7;0;Globalstar
12.0738519;0.0009024;51.9969;158.0762;236.7642;229.85;0.00043388;-5.0E-7;0;Globalstar
12.07385206;0.0009021;51.9968;156.0836;238.3317;145.3847;0.00016843;-7.3E-7;0;Globalstar
12.07384854;0.0009022;51.9971;154.8678;239.4334;269.9401;0.00016513;-7.3E-7;0;Globalstar
12.07384816;0.0009017;51.9971;152.3906;241.3956;232.6766;-5.0826E-5;-9.3E-7;0;Globalstar
12.07384813;0.0009017;51.9971;152.1418;241.5912;266.6938;-7.5849E-5;-9.5E-7;0;Globalstar
12.07384785;0.0009013;51.997;149.4156;243.7584;263.9174;-0.00026003;-1.11E-6;0;Globalstar
12.07384769;0.0009007;51.997;146.6894;245.9484;261.1111;-0.00038553;-1.22E-6;0;Globalstar
12.07384738;0.0009006;51.997;145.1745;247.1478;140.0895;-0.00046576;-1.29E-6;0;Globalstar
12.07384736;0.0009007;51.997;144.9147;247.346;191.4654;-0.00047395;-1.3E-6;0;Globalstar
12.07384712;0.0009001;51.9969;142.188;249.553;189.214;-0.0005099;-1.33E-6;0;Globalstar
12.07384922;0.0008998;51.9964;141.4929;250.0733;210.2285;-0.00061446;-1.42E-6;0;Globalstar
12.07384826;0.0009;51.9964;138.9996;252.0294;198.3667;-0.00065557;-1.46E-6;0;Globalstar
12.07384815;0.0009;51.9964;138.737;252.2724;254.2249;-0.00065851;-1.46E-6;0;Globalstar
12.07384683;0.0008994;51.9964;136.0164;254.4202;242.3346;-0.00071143;-1.51E-6;0;Globalstar
12.07384556;0.000899;51.9964;133.2912;256.5456;237.7598;-0.000721;-1.52E-6;0;Globalstar
12.07384488;0.0008991;51.9964;132.0078;257.5802;109.9103;-0.0007178;-1.52E-6;0;Globalstar
12.07384445;0.000899;51.9964;131.2795;258.1604;183.1317;-0.00073135;-1.53E-6;0;Globalstar
12.07384432;0.0008989;51.9964;130.3267;258.9081;251.9729;-0.00067207;-1.48E-6;0;Globalstar
12.0738437;0.0008982;51.9964;127.8454;260.855;221.0363;-0.00052261;-1.34E-6;0;Globalstar
12.07384365;0.0008982;51.9964;127.5998;261.0569;249.9004;-0.00051394;-1.34E-6;0;Globalstar
12.0738434;0.0008973;51.9965;124.8719;263.2327;249.5157;-0.00025129;-1.1E-6;0;Globalstar
12.07384321;0.0008956;51.9966;120.3724;266.8178;174.3247;0.00016512;-7.3E-7;0;Globalstar
12.07384327;0.0008957;51.9967;119.4175;267.5483;246.3495;0.00024786;-6.6E-7;0;Globalstar
12.0738444;0.0008952;51.9968;116.6896;269.6565;246.0043;0.00058768;-3.6E-7;0;Globalstar
12.07384599;0.0008947;51.997;114.202;271.548;225.0366;0.00092566;-6.0E-8;0;Globalstar
12.07384726;0.0008938;51.9972;112.1918;273.1411;168.2243;0.0010995;9.0E-8;0;Globalstar
12.07384791;0.0008939;51.9972;111.4748;273.6866;223.633;0.0011714;1.6E-7;0;Globalstar
12.07384988;0.0008929;51.9975;108.7473;275.7806;222.7874;0.0012997;2.7E-7;0;Globalstar
12.07385057;0.0008919;51.9976;107.4638;276.8315;95.3007;0.0012828;2.5E-7;0;Globalstar
12.07385107;0.0008918;51.9978;106.0205;277.9233;220.8542;0.0011739;1.6E-7;0;Globalstar
12.07385195;0.0008909;51.998;103.7705;279.6389;183.9846;0.00099445;0;0;Globalstar
12.07385209;0.0008907;51.9981;103.2877;280.0315;228.496;0.00093575;-5.0E-8;0;Globalstar
12.07385289;0.0008895;51.9983;100.8179;281.9517;179.7;0.00067099;-2.9E-7;0;Globalstar
12.07385041;0.0008899;51.9985;100.5611;282.1384;226.9892;0.00026475;-6.5E-7;0;Globalstar
12.07385418;0.000889;51.9986;97.8337;284.2662;225.6039;0.00037782;-5.5E-7;0;Globalstar
12.07385446;0.0008883;51.9987;96.2737;285.4678;176.0312;0.00018246;-7.2E-7;0;Globalstar
12.07385473;0.0008884;51.9988;95.5896;286.0321;179.5406;0.00013922;-7.6E-7;0;Globalstar
12.0738554;0.0008879;51.9989;93.1143;287.9322;139.5107;-6.837E-5;-9.4E-7;0;Globalstar
12.07385558;0.000888;51.999;92.3819;288.528;219.3575;-0.0001186;-9.9E-7;0;Globalstar
12.07385533;0.0008876;51.9992;89.6547;290.6485;218.1661;-0.00038065;-1.22E-6;0;Globalstar
12.07385426;0.0008879;51.9995;85.4142;293.898;93.5932;-0.0006906;-1.49E-6;0;Globalstar
12.07385391;0.0008874;51.9995;84.9381;294.2961;127.4688;-0.0007217;-1.52E-6;0;Globalstar
12.0738536;0.0008873;51.9996;84.2036;294.8779;210.7074;-0.00075943;-1.55E-6;0;Globalstar
12.07385172;0.0008866;51.9997;81.4769;297.0227;208.9339;-0.00092885;-1.7E-6;0;Globalstar
12.07384954;0.0008869;52.0001;77.2329;300.2946;89.9558;-0.00097579;-1.74E-6;0;Globalstar
12.07384943;0.0008868;52.0001;76.5124;300.875;151.0793;-0.00091306;-1.69E-6;0;Globalstar
12.07384896;0.000887;52.0003;74.5061;302.406;88.3415;-0.0008388;-1.62E-6;0;Globalstar
